STARLINK-36937          
1 68113U 26044N   26090.25002315 -.01867359  00000+0 -19732-1 0  9993
2 68113  97.2850  51.4585 0001545 106.7752 288.1865 15.67092630  4824
STARLINK-36229          
1 68114U 26044P   26088.33352414  .00106424  00000+0  70574-3 0  9997
2 68114  97.2847  49.4591 0002103  73.2895 286.8601 15.75181785  4576
STARLINK-36392          
1 68115U 26044Q   26090.25002315 -.01865812  00000+0 -21999-1 0  9995
2 68115  97.2852  51.4514 0001531 110.0972 268.9045 15.64363956  4866
STARLINK-36805          
1 68116U 26044R   26090.25002315 -.01868485  00000+0 -20870-1 0  9992
2 68116  97.2849  51.4575 0001523 108.9749 283.7550 15.65722829  4864
STARLINK-36844          
1 68117U 26044S   26090.25002315 -.01878642  00000+0 -19304-1 0  9999
2 68117  97.2850  51.4666 0001586 104.1264 311.4204 15.67795402  4827
STARLINK-36789          
1 68118U 26044T   26090.25002315 -.01840987  00000+0 -18639-1 0  9991
2 68118  97.2848  51.4696 0001624  99.9451 322.5418 15.68627251  4827
STARLINK-36850          
1 68119U 26044U   26090.25002315 -.01841761  00000+0 -18638-1 0  9992
2 68119  97.2850  51.4706 0001580 101.1149 323.4465 15.68640865  4822
STARLINK-36868          
1 68120U 26044V   26089.15398505  .00742174  00000+0  44302-2 0  9993
2 68120  97.2839  50.3332 0002273 138.5040 221.6399 15.75849204  4706
STARLINK-36855          
1 68121U 26044W   26090.25002315 -.01875220  00000+0 -19307-1 0  9996
2 68121  97.2850  51.4738 0001655  99.5851 331.6413 15.67740953  4825
STARLINK-36366          
1 68122U 26044X   26090.25002315 -.01881071  00000+0 -19130-1 0  9992
2 68122  97.2848  51.4752 0001641  99.3218 335.8001 15.68050818  4867
STARLINK-36922          
1 68123U 26044Y   26090.25002315 -.01840389  00000+0 -18687-1 0  9996
2 68123  97.2851  51.4828 0001576  99.5601 352.5220 15.68556641  4865
STARLINK-36938          
1 68124U 26044Z   26090.00002315  .00059854  00000+0  39938-3 0  9990
2 68124  97.2856  51.2824 0001483  87.2083 166.6404 15.75187942  4826
