CCSDS_OMM_VERS = 2.0
CREATION_DATE  = 
ORIGINATOR     = 

OBJECT_NAME    = STARLINK-36937
OBJECT_ID      = 2026-044N
CENTER_NAME    = EARTH
REF_FRAME      = TEME
TIME_SYSTEM    = UTC
MEAN_ELEMENT_THEORY = SGP/SGP4

EPOCH          = 2026-03-31T06:00:02.000160
MEAN_MOTION    = 15.67092630
ECCENTRICITY   = .00015456
INCLINATION    = 97.2850
RA_OF_ASC_NODE = 51.4585
ARG_OF_PERICENTER = 106.7752
MEAN_ANOMALY   = 288.1865

EPHEMERIS_TYPE = 0
CLASSIFICATION_TYPE = U
NORAD_CAT_ID   = 68113
ELEMENT_SET_NO = 999
REV_AT_EPOCH   = 482
BSTAR          = -.19731755E-1
MEAN_MOTION_DOT = -.1867359E-1
MEAN_MOTION_DDOT = 0

CCSDS_OMM_VERS = 2.0
CREATION_DATE  = 
ORIGINATOR     = 

OBJECT_NAME    = STARLINK-36229
OBJECT_ID      = 2026-044P
CENTER_NAME    = EARTH
REF_FRAME      = TEME
TIME_SYSTEM    = UTC
MEAN_ELEMENT_THEORY = SGP/SGP4

EPOCH          = 2026-03-29T08:00:16.485696
MEAN_MOTION    = 15.75181785
ECCENTRICITY   = .00021039
INCLINATION    = 97.2847
RA_OF_ASC_NODE = 49.4591
ARG_OF_PERICENTER = 73.2895
MEAN_ANOMALY   = 286.8601

EPHEMERIS_TYPE = 0
CLASSIFICATION_TYPE = U
NORAD_CAT_ID   = 68114
ELEMENT_SET_NO = 999
REV_AT_EPOCH   = 457
BSTAR          = .70573562E-3
MEAN_MOTION_DOT = .106424E-2
MEAN_MOTION_DDOT = 0

CCSDS_OMM_VERS = 2.0
CREATION_DATE  = 
ORIGINATOR     = 

OBJECT_NAME    = STARLINK-36392
OBJECT_ID      = 2026-044Q
CENTER_NAME    = EARTH
REF_FRAME      = TEME
TIME_SYSTEM    = UTC
MEAN_ELEMENT_THEORY = SGP/SGP4

EPOCH          = 2026-03-31T06:00:02.000160
MEAN_MOTION    = 15.64363956
ECCENTRICITY   = .00015315
INCLINATION    = 97.2852
RA_OF_ASC_NODE = 51.4514
ARG_OF_PERICENTER = 110.0972
MEAN_ANOMALY   = 268.9045

EPHEMERIS_TYPE = 0
CLASSIFICATION_TYPE = U
NORAD_CAT_ID   = 68115
ELEMENT_SET_NO = 999
REV_AT_EPOCH   = 486
BSTAR          = -.21999029E-1
MEAN_MOTION_DOT = -.1865812E-1
MEAN_MOTION_DDOT = 0

CCSDS_OMM_VERS = 2.0
CREATION_DATE  = 
ORIGINATOR     = 

OBJECT_NAME    = STARLINK-36805
OBJECT_ID      = 2026-044R
CENTER_NAME    = EARTH
REF_FRAME      = TEME
TIME_SYSTEM    = UTC
MEAN_ELEMENT_THEORY = SGP/SGP4

EPOCH          = 2026-03-31T06:00:02.000160
MEAN_MOTION    = 15.65722829
ECCENTRICITY   = .0001523
INCLINATION    = 97.2849
RA_OF_ASC_NODE = 51.4575
ARG_OF_PERICENTER = 108.9749
MEAN_ANOMALY   = 283.7550

EPHEMERIS_TYPE = 0
CLASSIFICATION_TYPE = U
NORAD_CAT_ID   = 68116
ELEMENT_SET_NO = 999
REV_AT_EPOCH   = 486
BSTAR          = -.20869742E-1
MEAN_MOTION_DOT = -.1868485E-1
MEAN_MOTION_DDOT = 0

CCSDS_OMM_VERS = 2.0
CREATION_DATE  = 
ORIGINATOR     = 

OBJECT_NAME    = STARLINK-36844
OBJECT_ID      = 2026-044S
CENTER_NAME    = EARTH
REF_FRAME      = TEME
TIME_SYSTEM    = UTC
MEAN_ELEMENT_THEORY = SGP/SGP4

EPOCH          = 2026-03-31T06:00:02.000160
MEAN_MOTION    = 15.67795402
ECCENTRICITY   = .00015866
INCLINATION    = 97.2850
RA_OF_ASC_NODE = 51.4666
ARG_OF_PERICENTER = 104.1264
MEAN_ANOMALY   = 311.4204

EPHEMERIS_TYPE = 0
CLASSIFICATION_TYPE = U
NORAD_CAT_ID   = 68117
ELEMENT_SET_NO = 999
REV_AT_EPOCH   = 482
BSTAR          = -.19304016E-1
MEAN_MOTION_DOT = -.1878642E-1
MEAN_MOTION_DDOT = 0

CCSDS_OMM_VERS = 2.0
CREATION_DATE  = 
ORIGINATOR     = 

OBJECT_NAME    = STARLINK-36789
OBJECT_ID      = 2026-044T
CENTER_NAME    = EARTH
REF_FRAME      = TEME
TIME_SYSTEM    = UTC
MEAN_ELEMENT_THEORY = SGP/SGP4

EPOCH          = 2026-03-31T06:00:02.000160
MEAN_MOTION    = 15.68627251
ECCENTRICITY   = .00016244
INCLINATION    = 97.2848
RA_OF_ASC_NODE = 51.4696
ARG_OF_PERICENTER = 99.9451
MEAN_ANOMALY   = 322.5418

EPHEMERIS_TYPE = 0
CLASSIFICATION_TYPE = U
NORAD_CAT_ID   = 68118
ELEMENT_SET_NO = 999
REV_AT_EPOCH   = 482
BSTAR          = -.18639249E-1
MEAN_MOTION_DOT = -.1840987E-1
MEAN_MOTION_DDOT = 0

CCSDS_OMM_VERS = 2.0
CREATION_DATE  = 
ORIGINATOR     = 

OBJECT_NAME    = STARLINK-36850
OBJECT_ID      = 2026-044U
CENTER_NAME    = EARTH
REF_FRAME      = TEME
TIME_SYSTEM    = UTC
MEAN_ELEMENT_THEORY = SGP/SGP4

EPOCH          = 2026-03-31T06:00:02.000160
MEAN_MOTION    = 15.68640865
ECCENTRICITY   = .00015805
INCLINATION    = 97.2850
RA_OF_ASC_NODE = 51.4706
ARG_OF_PERICENTER = 101.1149
MEAN_ANOMALY   = 323.4465

EPHEMERIS_TYPE = 0
CLASSIFICATION_TYPE = U
NORAD_CAT_ID   = 68119
ELEMENT_SET_NO = 999
REV_AT_EPOCH   = 482
BSTAR          = -.18638202E-1
MEAN_MOTION_DOT = -.1841761E-1
MEAN_MOTION_DDOT = 0

CCSDS_OMM_VERS = 2.0
CREATION_DATE  = 
ORIGINATOR     = 

OBJECT_NAME    = STARLINK-36868
OBJECT_ID      = 2026-044V
CENTER_NAME    = EARTH
REF_FRAME      = TEME
TIME_SYSTEM    = UTC
MEAN_ELEMENT_THEORY = SGP/SGP4

EPOCH          = 2026-03-30T03:41:44.308320
MEAN_MOTION    = 15.75849204
ECCENTRICITY   = .00022732
INCLINATION    = 97.2839
RA_OF_ASC_NODE = 50.3332
ARG_OF_PERICENTER = 138.5040
MEAN_ANOMALY   = 221.6399

EPHEMERIS_TYPE = 0
CLASSIFICATION_TYPE = U
NORAD_CAT_ID   = 68120
ELEMENT_SET_NO = 999
REV_AT_EPOCH   = 470
BSTAR          = .44301837E-2
MEAN_MOTION_DOT = .742174E-2
MEAN_MOTION_DDOT = 0

CCSDS_OMM_VERS = 2.0
CREATION_DATE  = 
ORIGINATOR     = 

OBJECT_NAME    = STARLINK-36855
OBJECT_ID      = 2026-044W
CENTER_NAME    = EARTH
REF_FRAME      = TEME
TIME_SYSTEM    = UTC
MEAN_ELEMENT_THEORY = SGP/SGP4

EPOCH          = 2026-03-31T06:00:02.000160
MEAN_MOTION    = 15.67740953
ECCENTRICITY   = .00016558
INCLINATION    = 97.2850
RA_OF_ASC_NODE = 51.4738
ARG_OF_PERICENTER = 99.5851
MEAN_ANOMALY   = 331.6413

EPHEMERIS_TYPE = 0
CLASSIFICATION_TYPE = U
NORAD_CAT_ID   = 68121
ELEMENT_SET_NO = 999
REV_AT_EPOCH   = 482
BSTAR          = -.19306887E-1
MEAN_MOTION_DOT = -.187522E-1
MEAN_MOTION_DDOT = 0

CCSDS_OMM_VERS = 2.0
CREATION_DATE  = 
ORIGINATOR     = 

OBJECT_NAME    = STARLINK-36366
OBJECT_ID      = 2026-044X
CENTER_NAME    = EARTH
REF_FRAME      = TEME
TIME_SYSTEM    = UTC
MEAN_ELEMENT_THEORY = SGP/SGP4

EPOCH          = 2026-03-31T06:00:02.000160
MEAN_MOTION    = 15.68050818
ECCENTRICITY   = .00016411
INCLINATION    = 97.2848
RA_OF_ASC_NODE = 51.4752
ARG_OF_PERICENTER = 99.3218
MEAN_ANOMALY   = 335.8001

EPHEMERIS_TYPE = 0
CLASSIFICATION_TYPE = U
NORAD_CAT_ID   = 68122
ELEMENT_SET_NO = 999
REV_AT_EPOCH   = 486
BSTAR          = -.19130408E-1
MEAN_MOTION_DOT = -.1881071E-1
MEAN_MOTION_DDOT = 0

CCSDS_OMM_VERS = 2.0
CREATION_DATE  = 
ORIGINATOR     = 

OBJECT_NAME    = STARLINK-36922
OBJECT_ID      = 2026-044Y
CENTER_NAME    = EARTH
REF_FRAME      = TEME
TIME_SYSTEM    = UTC
MEAN_ELEMENT_THEORY = SGP/SGP4

EPOCH          = 2026-03-31T06:00:02.000160
MEAN_MOTION    = 15.68556641
ECCENTRICITY   = .0001576
INCLINATION    = 97.2851
RA_OF_ASC_NODE = 51.4828
ARG_OF_PERICENTER = 99.5601
MEAN_ANOMALY   = 352.5220

EPHEMERIS_TYPE = 0
CLASSIFICATION_TYPE = U
NORAD_CAT_ID   = 68123
ELEMENT_SET_NO = 999
REV_AT_EPOCH   = 486
BSTAR          = -.18687152E-1
MEAN_MOTION_DOT = -.1840389E-1
MEAN_MOTION_DDOT = 0

CCSDS_OMM_VERS = 2.0
CREATION_DATE  = 
ORIGINATOR     = 

OBJECT_NAME    = STARLINK-36938
OBJECT_ID      = 2026-044Z
CENTER_NAME    = EARTH
REF_FRAME      = TEME
TIME_SYSTEM    = UTC
MEAN_ELEMENT_THEORY = SGP/SGP4

EPOCH          = 2026-03-31T00:00:02.000160
MEAN_MOTION    = 15.75187942
ECCENTRICITY   = .0001483
INCLINATION    = 97.2856
RA_OF_ASC_NODE = 51.2824
ARG_OF_PERICENTER = 87.2083
MEAN_ANOMALY   = 166.6404

EPHEMERIS_TYPE = 0
CLASSIFICATION_TYPE = U
NORAD_CAT_ID   = 68124
ELEMENT_SET_NO = 999
REV_AT_EPOCH   = 482
BSTAR          = .39938278E-3
MEAN_MOTION_DOT = .59854E-3
MEAN_MOTION_DDOT = 0

